      2.10          N: GNSS NAV DATA                        RINEX VERSION / TYPE
fic2rin                                 05/27/2022 00:17:38 PGM / RUN BY / DATE
                                                            END OF HEADER
29 22  5 26  8  0  0.0 -.517564360052D-03 -.397903932026D-11  .000000000000D+00
     .310000000000D+02 -.677812500000D+02  .417517391275D-08 -.151430934102D+01
    -.353530049324D-05  .217370688915D-02  .550784170628D-05  .515369966507D+04
     .374400000000D+06  .167638063431D-07  .163321145601D+01  .409781932831D-07
     .980596649581D+00  .283062500000D+03  .227475563572D+01 -.808140805165D-08
    -.406445501515D-09  .100000000000D+01  .221100000000D+04  .000000000000D+00
     .240000000000D+01  .000000000000D+00 -.102445483208D-07  .310000000000D+02
     .367200000000D+06  .400000000000D+01
22 22  5 26  8  0  0.0  .265282113105D-03  .625277607469D-11  .000000000000D+00
     .170000000000D+02 -.495937500000D+02  .480698594455D-08 -.176978335533D+01
    -.232458114624D-05  .133845765376D-01  .671669840813D-05  .515369146538D+04
     .374400000000D+06  .247731804848D-06 -.150091684680D+01  .109896063805D-06
     .961025086369D+00  .245281250000D+03 -.185135735272D+01 -.803497754621D-08
    -.228938107620D-09  .100000000000D+01  .221100000000D+04  .000000000000D+00
     .240000000000D+01  .000000000000D+00 -.838190317154D-08  .170000000000D+02
     .367200000000D+06  .400000000000D+01
16 22  5 26  8  0  0.0 -.504025723785D-03 -.306954461848D-11  .000000000000D+00
     .500000000000D+02  .752187500000D+02  .461340645261D-08 -.680038639482D+00
     .396929681301D-05  .127188366605D-01  .457093119621D-05  .515365373230D+04
     .374400000000D+06  .875443220139D-07  .600185746203D+00  .251457095146D-06
     .969336501830D+00  .294687500000D+03  .730234275840D+00 -.839034949173D-08
     .450018745087D-10  .100000000000D+01  .221100000000D+04  .000000000000D+00
     .240000000000D+01  .000000000000D+00 -.102445483208D-07  .500000000000D+02
     .367200000000D+06  .400000000000D+01
10 22  5 26  8  0  0.0 -.429239124060D-03 -.151203494170D-10  .000000000000D+00
     .480000000000D+02  .232187500000D+02  .442982737723D-08  .428932170015D+00
     .120513141155D-05  .760675419588D-02  .680983066559D-05  .515367731857D+04
     .374400000000D+06 -.391155481339D-07 -.263361757731D+01  .145286321640D-06
     .973785427352D+00  .257281250000D+03 -.249528504730D+01 -.810319467344D-08
     .500020827875D-09  .100000000000D+01  .221100000000D+04  .000000000000D+00
     .240000000000D+01  .000000000000D+00  .232830643654D-08  .480000000000D+02
     .367200000000D+06  .400000000000D+01
8  22  5 26  8  0  0.0 -.695292837918D-04 -.147792889038D-11  .000000000000D+00
     .290000000000D+02 -.596250000000D+02  .450054460860D-08 -.165145649923D+01
    -.306032598019D-05  .744211114943D-02  .409968197346D-05  .515376513672D+04
     .374400000000D+06 -.633299350739D-07  .153650500476D+01 -.122934579849D-06
     .963307899812D+00  .303093750000D+03  .169428580032D+00 -.822105672573D-08
    -.263939565571D-09  .100000000000D+01  .221100000000D+04  .000000000000D+00
     .240000000000D+01  .000000000000D+00  .512227416039D-08  .290000000000D+02
     .367200000000D+06  .400000000000D+01
7  22  5 26  8  0  0.0  .322207808495D-03  .000000000000D+00  .000000000000D+00
     .180000000000D+02  .254687500000D+02  .467126600555D-08  .179053126999D+01
     .128708779812D-05  .161401386140D-01  .115819275379D-04  .515367225838D+04
     .374400000000D+06 -.420957803726D-06 -.531135082445D+00 -.156462192535D-06
     .950959102555D+00  .157312500000D+03 -.226639217841D+01 -.804676375144D-08
    -.112861844006D-09  .100000000000D+01  .221100000000D+04  .000000000000D+00
     .240000000000D+01  .000000000000D+00 -.111758708954D-07  .180000000000D+02
     .367200000000D+06  .400000000000D+01
9  22  5 26  8  0  0.0 -.333769246936D-03  .306954461848D-11  .000000000000D+00
     .110000000000D+03 -.435000000000D+02  .505235330794D-08 -.111270179188D+01
    -.229105353355D-05  .208788656164D-02  .663660466671D-05  .515355777931D+04
     .374400000000D+06 -.689178705215D-07 -.160309619162D+01 -.242143869400D-07
     .953973793432D+00  .254031250000D+03  .187674782034D+01 -.832570394184D-08
    -.209651589973D-09  .100000000000D+01  .221100000000D+04  .000000000000D+00
     .240000000000D+01  .000000000000D+00  .139698386192D-08  .110000000000D+03
     .367200000000D+06  .400000000000D+01
26 22  5 26  8  0  0.0  .208173412830D-03  .250111042988D-11  .000000000000D+00
     .410000000000D+02  .854687500000D+02  .532022160858D-08  .202494351228D+00
     .447779893875D-05  .692671269644D-02  .515207648277D-05  .515375443840D+04
     .374400000000D+06 -.745058059692D-08  .454861990668D+00  .540167093277D-07
     .937835055269D+00  .262687500000D+03  .390501908943D+00 -.867250410175D-08
     .700029159024D-10  .100000000000D+01  .221100000000D+04  .000000000000D+00
     .240000000000D+01  .000000000000D+00  .698491930962D-08  .410000000000D+02
     .367200000000D+06  .400000000000D+01
27 22  5 26  8  0  0.0  .208386220038D-03  .511590769747D-11  .000000000000D+00
     .300000000000D+02 -.610937500000D+02  .427374944739D-08 -.160993180508D+01
    -.311620533466D-05  .105446549132D-01  .420026481152D-05  .515365460014D+04
     .374400000000D+06  .176951289177D-06  .155677140139D+01 -.210478901863D-06
     .972046775547D+00  .304812500000D+03  .683384886112D+00 -.805497837932D-08
    -.345014371233D-09  .100000000000D+01  .221100000000D+04  .000000000000D+00
     .240000000000D+01  .000000000000D+00  .186264514923D-08  .300000000000D+02
     .367200000000D+06  .400000000000D+01
20 22  5 26  8  0  0.0  .514035578817D-03 -.102318153949D-11  .000000000000D+00
     .260000000000D+02  .299375000000D+02  .492556231230D-08 -.277790068754D+01
     .167638063431D-05  .478665588889D-02  .689923763275D-05  .515357955933D+04
     .374400000000D+06 -.260770320892D-07 -.278840644208D+01 -.316649675369D-07
     .943386776714D+00  .237156250000D+03 -.312033401960D+01 -.826570144250D-08
     .571452374714D-09  .100000000000D+01  .221100000000D+04  .000000000000D+00
     .240000000000D+01  .000000000000D+00 -.838190317154D-08  .260000000000D+02
     .367200000000D+06  .400000000000D+01
17 22  5 26  8  0  0.0  .617289450020D-03  .477484718431D-11  .000000000000D+00
     .370000000000D+02 -.605000000000D+02  .420910389750D-08 -.165198797006D+01
    -.303611159325D-05  .135154202580D-01  .531226396561D-05  .515355377579D+04
     .374400000000D+06  .149011611938D-07  .161997516487D+01  .387430191040D-06
     .978532025981D+00  .287625000000D+03 -.149309322821D+01 -.806712174229D-08
    -.452161691492D-09  .100000000000D+01  .221100000000D+04  .000000000000D+00
     .240000000000D+01  .000000000000D+00 -.111758708954D-07  .370000000000D+02
     .367200000000D+06  .400000000000D+01
23 22  5 26  8  0  0.0 -.242670066655D-04 -.238742359215D-11  .000000000000D+00
     .910000000000D+02  .242187500000D+02  .451983112625D-08  .171031832770D+01
     .110454857349D-05  .216865644325D-02  .665523111820D-05  .515370673370D+04
     .374400000000D+06 -.149011611938D-07 -.265897413743D+01  .931322574615D-08
     .968879669087D+00  .254343750000D+03  .300057046823D+01 -.807247910830D-08
     .506806824824D-09  .100000000000D+01  .221100000000D+04  .000000000000D+00
     .240000000000D+01  .000000000000D+00 -.838190317154D-08  .910000000000D+02
     .367200000000D+06  .400000000000D+01
15 22  5 26  8  0  0.0 -.582821667194D-04  .295585778076D-11  .000000000000D+00
     .112000000000D+03 -.479062500000D+02  .557451791533D-08 -.260836459766D+01
    -.280514359474D-05  .140574764227D-01  .563263893127D-05  .515378766823D+04
     .374400000000D+06  .262632966042D-06 -.171182715800D+01 -.540167093277D-07
     .929922403481D+00  .249562500000D+03  .109537193996D+01 -.842427947648D-08
    -.996470078407D-10  .100000000000D+01  .221100000000D+04  .000000000000D+00
     .340000000000D+01  .000000000000D+00 -.107102096081D-07  .112000000000D+03
     .367200000000D+06  .400000000000D+01
31 22  5 26  8  0  0.0 -.179186929017D-03 -.159161572810D-11  .000000000000D+00
     .102000000000D+03  .306875000000D+02  .460483466699D-08  .131756278029D+01
     .194460153580D-05  .104230440920D-01  .120829790831D-04  .515375098991D+04
     .374400000000D+06  .186264514923D-07 -.512651462151D+00  .163912773132D-06
     .955170390201D+00  .143656250000D+03  .392090292729D+00 -.807605068564D-08
    -.234295473633D-09  .100000000000D+01  .221100000000D+04  .000000000000D+00
     .340000000000D+01  .000000000000D+00 -.135041773319D-07  .102000000000D+03
     .367200000000D+06  .400000000000D+01
30 22  5 26  8  0  0.0 -.529271084815D-03 -.136424205266D-11  .000000000000D+00
     .103000000000D+03  .386250000000D+02  .508128308441D-08  .176786832242D+01
     .213086605072D-05  .585723039694D-02  .113062560558D-04  .515377238083D+04
     .374400000000D+06 -.109896063805D-06 -.519494990000D+00  .121071934700D-06
     .936115027874D+00  .152218750000D+03 -.268732412051D+01 -.823570019283D-08
    -.124648049234D-09  .100000000000D+01  .221100000000D+04  .000000000000D+00
     .340000000000D+01  .000000000000D+00  .372529029846D-08  .103000000000D+03
     .367200000000D+06  .400000000000D+01
19 22  5 26  8  0  0.0  .162280164659D-03  .500222085975D-11  .000000000000D+00
     .630000000000D+02 -.665000000000D+02  .424553398639D-08  .706953461895D+00
    -.380910933018D-05  .924126675818D-02  .596605241299D-05  .515369790840D+04
     .374400000000D+06  .353902578354D-07  .166478876950D+01 -.145286321640D-06
     .977366178287D+00  .278937500000D+03  .206898333273D+01 -.818319800590D-08
    -.475376944215D-09  .100000000000D+01  .221100000000D+04  .000000000000D+00
     .240000000000D+01  .000000000000D+00 -.158324837685D-07  .630000000000D+02
     .367200000000D+06  .400000000000D+01
